start=new Date('2021-10-20T00:00:00.000Z').valueOf();
sats=[{"MEAN_MOTION":"15.06399598","FILE":"3172644","INCLINATION":"53.0543","TLE_LINE1":"1 45676U 20035V   21292.82153109  .00001796  00000-0  13946-3 0  9992","GP_ID":"187628474","NORAD_CAT_ID":"45676","LAUNCH_DATE":"2020-06-04","EPHEMERIS_TYPE":"0","APOAPSIS":"548.088","SITE":"AFETR","RA_OF_ASC_NODE":"57.6824","CLASSIFICATION_TYPE":"U","MEAN_ELEMENT_THEORY":"SGP4","PERIOD":"95.592","MEAN_MOTION_DOT":"0.00001796","RCS_SIZE":"LARGE","SEMIMAJOR_AXIS":"6925.350","TIME_SYSTEM":"UTC","OBJECT_NAME":"STARLINK-1460","MEAN_MOTION_DDOT":"0.0000000000000","MEAN_ANOMALY":"253.1654","REF_FRAME":"TEME","OBJECT_TYPE":"PAYLOAD","EPOCH":"2021-10-19T19:43:00.286176","OBJECT_ID":"2020-035V","COUNTRY_CODE":"US","CENTER_NAME":"EARTH","REV_AT_EPOCH":"7725","PERIAPSIS":"546.342","TLE_LINE2":"2 45676  53.0543  57.6824 0001261 106.9473 253.1654 15.06399598 77254","DECAY_DATE":null,"ECCENTRICITY":"0.00012610","BSTAR":"0.00013946000000","ELEMENT_SET_NO":"999","ARG_OF_PERICENTER":"106.9473"},{"ARG_OF_PERICENTER":"110.8425","DECAY_DATE":null,"TLE_LINE2":"2 45677  53.0561  58.2362 0001263 110.8425 249.2700 15.06395928 77275","ELEMENT_SET_NO":"999","ECCENTRICITY":"0.00012630","BSTAR":"0.00001048100000","PERIAPSIS":"546.351","CENTER_NAME":"EARTH","REV_AT_EPOCH":"7727","OBJECT_ID":"2020-035W","COUNTRY_CODE":"US","OBJECT_TYPE":"PAYLOAD","EPOCH":"2021-10-19T16:47:50.595360","REF_FRAME":"TEME","MEAN_MOTION_DDOT":"0.0000000000000","MEAN_ANOMALY":"249.2700","TIME_SYSTEM":"UTC","OBJECT_NAME":"STARLINK-1392","PERIOD":"95.592","SEMIMAJOR_AXIS":"6925.361","MEAN_MOTION_DOT":"-0.00000125","RCS_SIZE":"LARGE","RA_OF_ASC_NODE":"58.2362","CLASSIFICATION_TYPE":"U","SITE":"AFETR","MEAN_ELEMENT_THEORY":"SGP4","APOAPSIS":"548.101","EPHEMERIS_TYPE":"0","LAUNCH_DATE":"2020-06-04","GP_ID":"187628225","NORAD_CAT_ID":"45677","TLE_LINE1":"1 45677U 20035W   21292.69989115 -.00000125  00000-0  10481-4 0  9990","INCLINATION":"53.0561","FILE":"3172644","MEAN_MOTION":"15.06395928"},{"MEAN_MOTION_DDOT":"0.0000000000000","MEAN_ANOMALY":"266.5306","REF_FRAME":"TEME","EPOCH":"2021-10-19T19:49:37.841088","OBJECT_TYPE":"PAYLOAD","COUNTRY_CODE":"US","OBJECT_ID":"2020-035X","REV_AT_EPOCH":"7741","CENTER_NAME":"EARTH","PERIAPSIS":"546.406","ELEMENT_SET_NO":"999","BSTAR":"-0.00001712800000","ECCENTRICITY":"0.00011800","DECAY_DATE":null,"TLE_LINE2":"2 45678  53.0549  47.6661 0001180  93.5818 266.5306 15.06397001 77411","ARG_OF_PERICENTER":"93.5818","INCLINATION":"53.0549","MEAN_MOTION":"15.06397001","FILE":"3172644","TLE_LINE1":"1 45678U 20035X   21292.82613242 -.00000536  00000-0 -17128-4 0  9993","NORAD_CAT_ID":"45678","GP_ID":"187629476","EPHEMERIS_TYPE":"0","LAUNCH_DATE":"2020-06-04","APOAPSIS":"548.040","MEAN_ELEMENT_THEORY":"SGP4","RA_OF_ASC_NODE":"47.6661","CLASSIFICATION_TYPE":"U","SITE":"AFETR","SEMIMAJOR_AXIS":"6925.358","RCS_SIZE":"LARGE","MEAN_MOTION_DOT":"-0.00000536","PERIOD":"95.592","OBJECT_NAME":"STARLINK-1393","TIME_SYSTEM":"UTC"},{"TLE_LINE1":"1 45679U 20035Y   21292.69712481  .00000355  00000-0  42739-4 0  9997","INCLINATION":"53.0562","MEAN_MOTION":"15.06405696","FILE":"3172644","EPHEMERIS_TYPE":"0","LAUNCH_DATE":"2020-06-04","NORAD_CAT_ID":"45679","GP_ID":"187629721","MEAN_ELEMENT_THEORY":"SGP4","CLASSIFICATION_TYPE":"U","RA_OF_ASC_NODE":"48.2465","SITE":"AFETR","APOAPSIS":"548.159","OBJECT_NAME":"STARLINK-1394","TIME_SYSTEM":"UTC","SEMIMAJOR_AXIS":"6925.331","MEAN_MOTION_DOT":"0.00000355","RCS_SIZE":"LARGE","PERIOD":"95.592","REF_FRAME":"TEME","MEAN_ANOMALY":"262.7138","MEAN_MOTION_DDOT":"0.0000000000000","COUNTRY_CODE":"US","OBJECT_ID":"2020-035Y","EPOCH":"2021-10-19T16:43:51.583584","OBJECT_TYPE":"PAYLOAD","PERIAPSIS":"546.233","REV_AT_EPOCH":"7741","CENTER_NAME":"EARTH","ARG_OF_PERICENTER":"97.4009","ELEMENT_SET_NO":"999","ECCENTRICITY":"0.00013910","BSTAR":"0.00004273900000","DECAY_DATE":null,"TLE_LINE2":"2 45679  53.0562  48.2465 0001391  97.4009 262.7138 15.06405696 77416"},{"REV_AT_EPOCH":"7739","CENTER_NAME":"EARTH","PERIAPSIS":"546.423","BSTAR":"0.00016529000000","ECCENTRICITY":"0.00011480","ELEMENT_SET_NO":"999","TLE_LINE2":"2 45680  53.0560  48.5142 0001148 108.1848 251.9266 15.06398624 77393","DECAY_DATE":null,"ARG_OF_PERICENTER":"108.1848","MEAN_MOTION_DDOT":"0.0000000000000","MEAN_ANOMALY":"251.9266","REF_FRAME":"TEME","EPOCH":"2021-10-19T15:18:56.449440","OBJECT_TYPE":"PAYLOAD","COUNTRY_CODE":"US","OBJECT_ID":"2020-035Z","APOAPSIS":"548.013","MEAN_ELEMENT_THEORY":"SGP4","SITE":"AFETR","RA_OF_ASC_NODE":"48.5142","CLASSIFICATION_TYPE":"U","MEAN_MOTION_DOT":"0.00002181","RCS_SIZE":"LARGE","SEMIMAJOR_AXIS":"6925.353","PERIOD":"95.592","OBJECT_NAME":"STARLINK-1395","TIME_SYSTEM":"UTC","FILE":"3172644","MEAN_MOTION":"15.06398624","INCLINATION":"53.0560","TLE_LINE1":"1 45680U 20035Z   21292.63815335  .00002181  00000-0  16529-3 0  9991","GP_ID":"187627975","NORAD_CAT_ID":"45680","LAUNCH_DATE":"2020-06-04","EPHEMERIS_TYPE":"0"},{"TLE_LINE1":"1 45681U 20035AA  21292.63446952  .00000857  00000-0  76382-4 0  9999","INCLINATION":"53.0545","MEAN_MOTION":"15.06406653","FILE":"3172644","EPHEMERIS_TYPE":"0","LAUNCH_DATE":"2020-06-04","NORAD_CAT_ID":"45681","GP_ID":"187628725","CLASSIFICATION_TYPE":"U","RA_OF_ASC_NODE":"48.5252","SITE":"AFETR","MEAN_ELEMENT_THEORY":"SGP4","APOAPSIS":"548.087","TIME_SYSTEM":"UTC","OBJECT_NAME":"STARLINK-1396","PERIOD":"95.592","SEMIMAJOR_AXIS":"6925.328","MEAN_MOTION_DOT":"0.00000857","RCS_SIZE":"LARGE","REF_FRAME":"TEME","MEAN_ANOMALY":"255.0707","MEAN_MOTION_DDOT":"0.0000000000000","OBJECT_ID":"2020-035AA","COUNTRY_CODE":"US","OBJECT_TYPE":"PAYLOAD","EPOCH":"2021-10-19T15:13:38.166528","PERIAPSIS":"546.300","CENTER_NAME":"EARTH","REV_AT_EPOCH":"7740","ARG_OF_PERICENTER":"105.0425","DECAY_DATE":null,"TLE_LINE2":"2 45681  53.0545  48.5252 0001290 105.0425 255.0707 15.06406653 77403","ELEMENT_SET_NO":"999","BSTAR":"0.00007638200000","ECCENTRICITY":"0.00012900"},{"TLE_LINE1":"1 45682U 20035AB  21292.84089018  .00000772  00000-0  70704-4 0  9997","INCLINATION":"53.0560","FILE":"3172644","MEAN_MOTION":"15.06404474","EPHEMERIS_TYPE":"0","LAUNCH_DATE":"2020-06-04","NORAD_CAT_ID":"45682","GP_ID":"187628977","MEAN_ELEMENT_THEORY":"SGP4","CLASSIFICATION_TYPE":"U","RA_OF_ASC_NODE":"47.6069","SITE":"AFETR","APOAPSIS":"548.040","OBJECT_NAME":"STARLINK-1397","TIME_SYSTEM":"UTC","SEMIMAJOR_AXIS":"6925.335","MEAN_MOTION_DOT":"0.00000772","RCS_SIZE":"LARGE","PERIOD":"95.592","REF_FRAME":"TEME","MEAN_ANOMALY":"260.8382","MEAN_MOTION_DDOT":"0.0000000000000","COUNTRY_CODE":"US","OBJECT_ID":"2020-035AB","EPOCH":"2021-10-19T20:10:52.911552","OBJECT_TYPE":"PAYLOAD","PERIAPSIS":"546.360","REV_AT_EPOCH":"7742","CENTER_NAME":"EARTH","ARG_OF_PERICENTER":"99.2744","ELEMENT_SET_NO":"999","BSTAR":"0.00007070400000","ECCENTRICITY":"0.00012130","DECAY_DATE":null,"TLE_LINE2":"2 45682  53.0560  47.6069 0001213  99.2744 260.8382 15.06404474 77424"},{"TLE_LINE2":"2 45683  53.0590  48.5726 0000606 283.3905  76.7017 15.06416652 77406","DECAY_DATE":null,"BSTAR":"-0.00016354000000","ECCENTRICITY":"0.00006060","ELEMENT_SET_NO":"999","ARG_OF_PERICENTER":"283.3905","CENTER_NAME":"EARTH","REV_AT_EPOCH":"7740","PERIAPSIS":"546.743","OBJECT_TYPE":"PAYLOAD","EPOCH":"2021-10-19T14:57:41.509440","OBJECT_ID":"2020-035AC","COUNTRY_CODE":"US","MEAN_ANOMALY":"76.7017","MEAN_MOTION_DDOT":"0.0000000000000","REF_FRAME":"TEME","PERIOD":"95.591","MEAN_MOTION_DOT":"-0.00002717","RCS_SIZE":"LARGE","SEMIMAJOR_AXIS":"6925.298","TIME_SYSTEM":"UTC","OBJECT_NAME":"STARLINK-1399","APOAPSIS":"547.582","SITE":"AFETR","CLASSIFICATION_TYPE":"U","RA_OF_ASC_NODE":"48.5726","MEAN_ELEMENT_THEORY":"SGP4","GP_ID":"187629222","NORAD_CAT_ID":"45683","LAUNCH_DATE":"2020-06-04","EPHEMERIS_TYPE":"0","MEAN_MOTION":"15.06416652","FILE":"3172644","INCLINATION":"53.0590","TLE_LINE1":"1 45683U 20035AC  21292.62339710 -.00002717  00000-0 -16354-3 0  9994"},{"GP_ID":"187628475","NORAD_CAT_ID":"45684","EPHEMERIS_TYPE":"0","LAUNCH_DATE":"2020-06-04","INCLINATION":"53.0553","FILE":"3172644","MEAN_MOTION":"15.06407280","TLE_LINE1":"1 45684U 20035AD  21292.80033935 -.00000888  00000-0 -40738-4 0  9996","PERIOD":"95.592","SEMIMAJOR_AXIS":"6925.326","MEAN_MOTION_DOT":"-0.00000888","RCS_SIZE":"LARGE","TIME_SYSTEM":"UTC","OBJECT_NAME":"STARLINK-1401","APOAPSIS":"548.166","CLASSIFICATION_TYPE":"U","RA_OF_ASC_NODE":"47.7820","SITE":"AFETR","MEAN_ELEMENT_THEORY":"SGP4","OBJECT_TYPE":"PAYLOAD","EPOCH":"2021-10-19T19:12:29.319840","OBJECT_ID":"2020-035AD","COUNTRY_CODE":"US","MEAN_ANOMALY":"255.4616","MEAN_MOTION_DDOT":"0.0000000000000","REF_FRAME":"TEME","DECAY_DATE":null,"TLE_LINE2":"2 45684  53.0553  47.7820 0001408 104.6529 255.4616 15.06407280 77431","ELEMENT_SET_NO":"999","BSTAR":"-0.00004073800000","ECCENTRICITY":"0.00014080","ARG_OF_PERICENTER":"104.6529","CENTER_NAME":"EARTH","REV_AT_EPOCH":"7743","PERIAPSIS":"546.216"},{"COUNTRY_CODE":"US","OBJECT_ID":"2020-035AE","EPOCH":"2021-10-19T19:07:10.149600","OBJECT_TYPE":"PAYLOAD","REF_FRAME":"TEME","MEAN_ANOMALY":"258.3497","MEAN_MOTION_DDOT":"0.0000000000000","ARG_OF_PERICENTER":"101.7627","ELEMENT_SET_NO":"999","BSTAR":"0.00003612200000","ECCENTRICITY":"0.00012020","DECAY_DATE":null,"TLE_LINE2":"2 45685  53.0562  47.8050 0001202 101.7627 258.3497 15.06404267 77438","PERIAPSIS":"546.368","REV_AT_EPOCH":"7743","CENTER_NAME":"EARTH","EPHEMERIS_TYPE":"0","LAUNCH_DATE":"2020-06-04","NORAD_CAT_ID":"45685","GP_ID":"187628226","TLE_LINE1":"1 45685U 20035AE  21292.79664525  .00000257  00000-0  36122-4 0  9990","INCLINATION":"53.0562","FILE":"3172644","MEAN_MOTION":"15.06404267","OBJECT_NAME":"STARLINK-1402","TIME_SYSTEM":"UTC","SEMIMAJOR_AXIS":"6925.335","MEAN_MOTION_DOT":"0.00000257","RCS_SIZE":"LARGE","PERIOD":"95.592","MEAN_ELEMENT_THEORY":"SGP4","CLASSIFICATION_TYPE":"U","RA_OF_ASC_NODE":"47.8050","SITE":"AFETR","APOAPSIS":"548.033"}];
